<?xml version="1.0" encoding="UTF-8"?>
<ndm xmlns:xsi="http://www.w3.org/2001/XMLSchema-instance" xsi:noNamespaceSchemaLocation="https://sanaregistry.org/r/ndmxml_unqualified/ndmxml-2.0.0-master-2.0.xsd">
<omm id="CCSDS_OMM_VERS" version="2.0">
<header><CREATION_DATE/><ORIGINATOR/></header><body><segment><metadata><OBJECT_NAME>ORBCOMM FM06</OBJECT_NAME><OBJECT_ID>1997-084G</OBJECT_ID><CENTER_NAME>EARTH</CENTER_NAME><REF_FRAME>TEME</REF_FRAME><TIME_SYSTEM>UTC</TIME_SYSTEM><MEAN_ELEMENT_THEORY>SGP4</MEAN_ELEMENT_THEORY></metadata><data><meanElements><EPOCH>2024-12-06T03:17:32.287200</EPOCH><MEAN_MOTION>14.44811518</MEAN_MOTION><ECCENTRICITY>.0001025</ECCENTRICITY><INCLINATION>45.0121</INCLINATION><RA_OF_ASC_NODE>214.0922</RA_OF_ASC_NODE><ARG_OF_PERICENTER>12.6492</ARG_OF_PERICENTER><MEAN_ANOMALY>121.7980</MEAN_ANOMALY></meanElements><tleParameters><EPHEMERIS_TYPE>0</EPHEMERIS_TYPE><CLASSIFICATION_TYPE>U</CLASSIFICATION_TYPE><NORAD_CAT_ID>25118</NORAD_CAT_ID><ELEMENT_SET_NO>999</ELEMENT_SET_NO><REV_AT_EPOCH>41361</REV_AT_EPOCH><BSTAR>.10568E-2</BSTAR><MEAN_MOTION_DOT>.3566E-4</MEAN_MOTION_DOT><MEAN_MOTION_DDOT>0</MEAN_MOTION_DDOT></tleParameters></data></segment></body></omm>
<omm id="CCSDS_OMM_VERS" version="2.0">
<header><CREATION_DATE/><ORIGINATOR/></header><body><segment><metadata><OBJECT_NAME>ORBCOMM FM07</OBJECT_NAME><OBJECT_ID>1997-084H</OBJECT_ID><CENTER_NAME>EARTH</CENTER_NAME><REF_FRAME>TEME</REF_FRAME><TIME_SYSTEM>UTC</TIME_SYSTEM><MEAN_ELEMENT_THEORY>SGP4</MEAN_ELEMENT_THEORY></metadata><data><meanElements><EPOCH>2024-12-05T21:50:51.210816</EPOCH><MEAN_MOTION>14.44676809</MEAN_MOTION><ECCENTRICITY>.0002421</ECCENTRICITY><INCLINATION>45.0118</INCLINATION><RA_OF_ASC_NODE>215.8765</RA_OF_ASC_NODE><ARG_OF_PERICENTER>329.4812</ARG_OF_PERICENTER><MEAN_ANOMALY>30.5898</MEAN_ANOMALY></meanElements><tleParameters><EPHEMERIS_TYPE>0</EPHEMERIS_TYPE><CLASSIFICATION_TYPE>U</CLASSIFICATION_TYPE><NORAD_CAT_ID>25119</NORAD_CAT_ID><ELEMENT_SET_NO>999</ELEMENT_SET_NO><REV_AT_EPOCH>41355</REV_AT_EPOCH><BSTAR>.10652E-2</BSTAR><MEAN_MOTION_DOT>.3585E-4</MEAN_MOTION_DOT><MEAN_MOTION_DDOT>0</MEAN_MOTION_DDOT></tleParameters></data></segment></body></omm>
<omm id="CCSDS_OMM_VERS" version="2.0">
<header><CREATION_DATE/><ORIGINATOR/></header><body><segment><metadata><OBJECT_NAME>ORBCOMM FM04</OBJECT_NAME><OBJECT_ID>1998-007C</OBJECT_ID><CENTER_NAME>EARTH</CENTER_NAME><REF_FRAME>TEME</REF_FRAME><TIME_SYSTEM>UTC</TIME_SYSTEM><MEAN_ELEMENT_THEORY>SGP4</MEAN_ELEMENT_THEORY></metadata><data><meanElements><EPOCH>2024-12-06T03:15:52.073568</EPOCH><MEAN_MOTION>14.33802637</MEAN_MOTION><ECCENTRICITY>.0044017</ECCENTRICITY><INCLINATION>107.9655</INCLINATION><RA_OF_ASC_NODE>102.3308</RA_OF_ASC_NODE><ARG_OF_PERICENTER>225.9494</ARG_OF_PERICENTER><MEAN_ANOMALY>133.8017</MEAN_ANOMALY></meanElements><tleParameters><EPHEMERIS_TYPE>0</EPHEMERIS_TYPE><CLASSIFICATION_TYPE>U</CLASSIFICATION_TYPE><NORAD_CAT_ID>25159</NORAD_CAT_ID><ELEMENT_SET_NO>999</ELEMENT_SET_NO><REV_AT_EPOCH>39665</REV_AT_EPOCH><BSTAR>.12896E-2</BSTAR><MEAN_MOTION_DOT>.3502E-4</MEAN_MOTION_DOT><MEAN_MOTION_DDOT>0</MEAN_MOTION_DDOT></tleParameters></data></segment></body></omm>
<omm id="CCSDS_OMM_VERS" version="2.0">
<header><CREATION_DATE/><ORIGINATOR/></header><body><segment><metadata><OBJECT_NAME>ORBCOMM FM18</OBJECT_NAME><OBJECT_ID>1998-046B</OBJECT_ID><CENTER_NAME>EARTH</CENTER_NAME><REF_FRAME>TEME</REF_FRAME><TIME_SYSTEM>UTC</TIME_SYSTEM><MEAN_ELEMENT_THEORY>SGP4</MEAN_ELEMENT_THEORY></metadata><data><meanElements><EPOCH>2024-12-06T03:45:54.493344</EPOCH><MEAN_MOTION>14.37476336</MEAN_MOTION><ECCENTRICITY>.0004163</ECCENTRICITY><INCLINATION>44.9939</INCLINATION><RA_OF_ASC_NODE>10.4761</RA_OF_ASC_NODE><ARG_OF_PERICENTER>355.5872</ARG_OF_PERICENTER><MEAN_ANOMALY>4.4939</MEAN_ANOMALY></meanElements><tleParameters><EPHEMERIS_TYPE>0</EPHEMERIS_TYPE><CLASSIFICATION_TYPE>U</CLASSIFICATION_TYPE><NORAD_CAT_ID>25414</NORAD_CAT_ID><ELEMENT_SET_NO>999</ELEMENT_SET_NO><REV_AT_EPOCH>37663</REV_AT_EPOCH><BSTAR>.10436E-2</BSTAR><MEAN_MOTION_DOT>.3012E-4</MEAN_MOTION_DOT><MEAN_MOTION_DDOT>0</MEAN_MOTION_DDOT></tleParameters></data></segment></body></omm>
<omm id="CCSDS_OMM_VERS" version="2.0">
<header><CREATION_DATE/><ORIGINATOR/></header><body><segment><metadata><OBJECT_NAME>ORBCOMM FM19</OBJECT_NAME><OBJECT_ID>1998-046C</OBJECT_ID><CENTER_NAME>EARTH</CENTER_NAME><REF_FRAME>TEME</REF_FRAME><TIME_SYSTEM>UTC</TIME_SYSTEM><MEAN_ELEMENT_THEORY>SGP4</MEAN_ELEMENT_THEORY></metadata><data><meanElements><EPOCH>2024-12-06T03:44:40.413984</EPOCH><MEAN_MOTION>14.37301281</MEAN_MOTION><ECCENTRICITY>.0003483</ECCENTRICITY><INCLINATION>44.9949</INCLINATION><RA_OF_ASC_NODE>12.1804</RA_OF_ASC_NODE><ARG_OF_PERICENTER>338.2461</ARG_OF_PERICENTER><MEAN_ANOMALY>65.1898</MEAN_ANOMALY></meanElements><tleParameters><EPHEMERIS_TYPE>0</EPHEMERIS_TYPE><CLASSIFICATION_TYPE>U</CLASSIFICATION_TYPE><NORAD_CAT_ID>25415</NORAD_CAT_ID><ELEMENT_SET_NO>999</ELEMENT_SET_NO><REV_AT_EPOCH>37662</REV_AT_EPOCH><BSTAR>.10949E-2</BSTAR><MEAN_MOTION_DOT>.3155E-4</MEAN_MOTION_DOT><MEAN_MOTION_DDOT>0</MEAN_MOTION_DDOT></tleParameters></data></segment></body></omm>

</ndm>
