ORBCOMM FM06            
1 25118U 97084G   24341.13717925  .00003566  00000+0  10568-2 0  9995
2 25118  45.0121 214.0922 0001025  12.6492 121.7980 14.44811518413614
ORBCOMM FM07            
1 25119U 97084H   24340.91031494  .00003585  00000+0  10652-2 0  9996
2 25119  45.0118 215.8765 0002421 329.4812  30.5898 14.44676809413551
ORBCOMM FM04            
1 25159U 98007C   24341.13601937  .00003502  00000+0  12896-2 0  9997
2 25159 107.9655 102.3308 0044017 225.9494 133.8017 14.33802637396654
ORBCOMM FM18            
1 25414U 98046B   24341.15688071  .00003012  00000+0  10436-2 0  9994
2 25414  44.9939  10.4761 0004163 355.5872   4.4939 14.37476336376632
ORBCOMM FM19            
1 25415U 98046C   24341.15602331  .00003155  00000+0  10949-2 0  9997
2 25415  44.9949  12.1804 0003483 338.2461  65.1898 14.37301281376620
